FALCONSAT-6             
1 43815U 18099BK  26068.72544389  .00005029  00000+0  19477-3 0  9998
2 43815  97.3865 145.8165 0014370 297.0944 181.0714 15.26532865398556
STARLINK-31453          
1 59522U 24073M   26068.00945881  .00028943  00000+0  10570-2 0  9996
2 59522  43.0033 304.0819 0001812 268.3632  91.7012 15.27584354106275
